{
  "type": "FeatureCollection",
  "features": [
    {
      "type": "Feature",
      "properties": {
        "OBJECT_NAME": "BEIDOU-3 M15 (C34)",
        "OBJECT_ID": "2018-078B",
        "EPOCH": "2025-11-29T22:35:16.677600",
        "MEAN_MOTION": 1.86232044,
        "ECCENTRICITY": 0.000355,
        "INCLINATION": 54.2696,
        "RA_OF_ASC_NODE": 306.9698,
        "ARG_OF_PERICENTER": 16.9403,
        "MEAN_ANOMALY": 343.0687,
        "EPHEMERIS_TYPE": 0,
        "CLASSIFICATION_TYPE": "U",
        "NORAD_CAT_ID": 43648,
        "ELEMENT_SET_NO": 999,
        "REV_AT_EPOCH": 4846,
        "BSTAR": 0,
        "MEAN_MOTION_DOT": -5e-07,
        "MEAN_MOTION_DDOT": 0,
        "norad_id": 43648,
        "name": "BEIDOU-3 M15 (C34)",
        "group": "beidou",
        "longitude_deg": NaN,
        "latitude_deg": NaN,
        "alt_km": NaN,
        "orbit_class": "HEO",
        "timestamp": "2025-11-30T08:43:09.304338+00:00"
      },
      "geometry": {
        "type": "Point",
        "coordinates": [
          NaN,
          NaN
        ]
      }
    },
    {
      "type": "Feature",
      "properties": {
        "OBJECT_NAME": "BEIDOU-3 G1 (C59)",
        "OBJECT_ID": "2018-085A",
        "EPOCH": "2025-11-28T14:34:02.383392",
        "MEAN_MOTION": 1.00265618,
        "ECCENTRICITY": 0.00016155,
        "INCLINATION": 2.5692,
        "RA_OF_ASC_NODE": 103.4187,
        "ARG_OF_PERICENTER": 56.2445,
        "MEAN_ANOMALY": 266.5866,
        "EPHEMERIS_TYPE": 0,
        "CLASSIFICATION_TYPE": "U",
        "NORAD_CAT_ID": 43683,
        "ELEMENT_SET_NO": 999,
        "REV_AT_EPOCH": 2604,
        "BSTAR": 0,
        "MEAN_MOTION_DOT": -2.57e-06,
        "MEAN_MOTION_DDOT": 0,
        "norad_id": 43683,
        "name": "BEIDOU-3 G1 (C59)",
        "group": "beidou",
        "longitude_deg": NaN,
        "latitude_deg": NaN,
        "alt_km": NaN,
        "orbit_class": "HEO",
        "timestamp": "2025-11-30T08:43:09.304414+00:00"
      },
      "geometry": {
        "type": "Point",
        "coordinates": [
          NaN,
          NaN
        ]
      }
    },
    {
      "type": "Feature",
      "properties": {
        "OBJECT_NAME": "BEIDOU-3 M17 (C36)",
        "OBJECT_ID": "2018-093A",
        "EPOCH": "2025-11-30T05:23:59.265600",
        "MEAN_MOTION": 1.86228182,
        "ECCENTRICITY": 0.0006375,
        "INCLINATION": 54.1727,
        "RA_OF_ASC_NODE": 189.0472,
        "ARG_OF_PERICENTER": 306.0351,
        "MEAN_ANOMALY": 138.1008,
        "EPHEMERIS_TYPE": 0,
        "CLASSIFICATION_TYPE": "U",
        "NORAD_CAT_ID": 43706,
        "ELEMENT_SET_NO": 999,
        "REV_AT_EPOCH": 4783,
        "BSTAR": 0,
        "MEAN_MOTION_DOT": 1.11e-06,
        "MEAN_MOTION_DDOT": 0,
        "norad_id": 43706,
        "name": "BEIDOU-3 M17 (C36)",
        "group": "beidou",
        "longitude_deg": NaN,
        "latitude_deg": NaN,
        "alt_km": NaN,
        "orbit_class": "HEO",
        "timestamp": "2025-11-30T08:43:09.304464+00:00"
      },
      "geometry": {
        "type": "Point",
        "coordinates": [
          NaN,
          NaN
        ]
      }
    },
    {
      "type": "Feature",
      "properties": {
        "OBJECT_NAME": "BEIDOU-3 M18 (C37)",
        "OBJECT_ID": "2018-093B",
        "EPOCH": "2025-11-29T23:03:45.514080",
        "MEAN_MOTION": 1.8622645,
        "ECCENTRICITY": 0.0006378,
        "INCLINATION": 54.1734,
        "RA_OF_ASC_NODE": 189.048,
        "ARG_OF_PERICENTER": 350.6014,
        "MEAN_ANOMALY": 9.4764,
        "EPHEMERIS_TYPE": 0,
        "CLASSIFICATION_TYPE": "U",
        "NORAD_CAT_ID": 43707,
        "ELEMENT_SET_NO": 999,
        "REV_AT_EPOCH": 4782,
        "BSTAR": 0,
        "MEAN_MOTION_DOT": 1.09e-06,
        "MEAN_MOTION_DDOT": 0,
        "norad_id": 43707,
        "name": "BEIDOU-3 M18 (C37)",
        "group": "beidou",
        "longitude_deg": NaN,
        "latitude_deg": NaN,
        "alt_km": NaN,
        "orbit_class": "HEO",
        "timestamp": "2025-11-30T08:43:09.304471+00:00"
      },
      "geometry": {
        "type": "Point",
        "coordinates": [
          NaN,
          NaN
        ]
      }
    },
    {
      "type": "Feature",
      "properties": {
        "OBJECT_NAME": "BEIDOU-3 IGSO-1 (C38)",
        "OBJECT_ID": "2019-023A",
        "EPOCH": "2025-11-19T14:15:02.708640",
        "MEAN_MOTION": 1.00252177,
        "ECCENTRICITY": 0.0026966,
        "INCLINATION": 58.4003,
        "RA_OF_ASC_NODE": 39.8168,
        "ARG_OF_PERICENTER": 221.2202,
        "MEAN_ANOMALY": 126.9723,
        "EPHEMERIS_TYPE": 0,
        "CLASSIFICATION_TYPE": "U",
        "NORAD_CAT_ID": 44204,
        "ELEMENT_SET_NO": 999,
        "REV_AT_EPOCH": 510,
        "BSTAR": 0,
        "MEAN_MOTION_DOT": -2.26e-06,
        "MEAN_MOTION_DDOT": 0,
        "norad_id": 44204,
        "name": "BEIDOU-3 IGSO-1 (C38)",
        "group": "beidou",
        "longitude_deg": NaN,
        "latitude_deg": NaN,
        "alt_km": NaN,
        "orbit_class": "HEO",
        "timestamp": "2025-11-30T08:43:09.305194+00:00"
      },
      "geometry": {
        "type": "Point",
        "coordinates": [
          NaN,
          NaN
        ]
      }
    },
    {
      "type": "Feature",
      "properties": {
        "OBJECT_NAME": "BEIDOU-2 G8 (C01)",
        "OBJECT_ID": "2019-027A",
        "EPOCH": "2025-11-30T04:15:28.666368",
        "MEAN_MOTION": 1.0027142,
        "ECCENTRICITY": 0.0008088,
        "INCLINATION": 1.6272,
        "RA_OF_ASC_NODE": 74.6862,
        "ARG_OF_PERICENTER": 255.7113,
        "MEAN_ANOMALY": 307.3675,
        "EPHEMERIS_TYPE": 0,
        "CLASSIFICATION_TYPE": "U",
        "NORAD_CAT_ID": 44231,
        "ELEMENT_SET_NO": 999,
        "REV_AT_EPOCH": 2408,
        "BSTAR": 0,
        "MEAN_MOTION_DOT": -2.25e-06,
        "MEAN_MOTION_DDOT": 0,
        "norad_id": 44231,
        "name": "BEIDOU-2 G8 (C01)",
        "group": "beidou",
        "longitude_deg": NaN,
        "latitude_deg": NaN,
        "alt_km": NaN,
        "orbit_class": "HEO",
        "timestamp": "2025-11-30T08:43:09.305216+00:00"
      },
      "geometry": {
        "type": "Point",
        "coordinates": [
          NaN,
          NaN
        ]
      }
    },
    {
      "type": "Feature",
      "properties": {
        "OBJECT_NAME": "BEIDOU-3 IGSO-2 (C39)",
        "OBJECT_ID": "2019-035A",
        "EPOCH": "2025-11-28T17:30:26.765280",
        "MEAN_MOTION": 1.00275421,
        "ECCENTRICITY": 0.00375973,
        "INCLINATION": 55.2218,
        "RA_OF_ASC_NODE": 160.6256,
        "ARG_OF_PERICENTER": 202.098,
        "MEAN_ANOMALY": 87.3007,
        "EPHEMERIS_TYPE": 0,
        "CLASSIFICATION_TYPE": "U",
        "NORAD_CAT_ID": 44337,
        "ELEMENT_SET_NO": 999,
        "REV_AT_EPOCH": 2365,
        "BSTAR": 0,
        "MEAN_MOTION_DOT": -4e-07,
        "MEAN_MOTION_DDOT": 0,
        "norad_id": 44337,
        "name": "BEIDOU-3 IGSO-2 (C39)",
        "group": "beidou",
        "longitude_deg": NaN,
        "latitude_deg": NaN,
        "alt_km": NaN,
        "orbit_class": "HEO",
        "timestamp": "2025-11-30T08:43:09.305303+00:00"
      },
      "geometry": {
        "type": "Point",
        "coordinates": [
          NaN,
          NaN
        ]
      }
    },
    {
      "type": "Feature",
      "properties": {
        "OBJECT_NAME": "BEIDOU-3 M24 (C46)",
        "OBJECT_ID": "2019-061A",
        "EPOCH": "2025-11-30T00:46:19.979616",
        "MEAN_MOTION": 1.86229277,
        "ECCENTRICITY": 0.0009555,
        "INCLINATION": 54.4002,
        "RA_OF_ASC_NODE": 189.4453,
        "ARG_OF_PERICENTER": 23.3497,
        "MEAN_ANOMALY": 336.784,
        "EPHEMERIS_TYPE": 0,
        "CLASSIFICATION_TYPE": "U",
        "NORAD_CAT_ID": 44542,
        "ELEMENT_SET_NO": 999,
        "REV_AT_EPOCH": 4208,
        "BSTAR": 0,
        "MEAN_MOTION_DOT": 1.09e-06,
        "MEAN_MOTION_DDOT": 0,
        "norad_id": 44542,
        "name": "BEIDOU-3 M24 (C46)",
        "group": "beidou",
        "longitude_deg": NaN,
        "latitude_deg": NaN,
        "alt_km": NaN,
        "orbit_class": "HEO",
        "timestamp": "2025-11-30T08:43:09.305548+00:00"
      },
      "geometry": {
        "type": "Point",
        "coordinates": [
          NaN,
          NaN
        ]
      }
    }
  ]
}