BEIDOU-3 M15 (C34)      
1 43648U 18078B   25333.94116525 -.00000050  00000+0  00000+0 0  9992
2 43648  54.2696 306.9698 0003550  16.9403 343.0687  1.86232044 48469
BEIDOU-3 G1 (C59)       
1 43683U 18085A   25332.60697203 -.00000257  00000+0  00000+0 0  9997
2 43683   2.5692 103.4187 0001615  56.2445 266.5866  1.00265618 26043
BEIDOU-3 M17 (C36)      
1 43706U 18093A   25334.22499150  .00000111  00000+0  00000+0 0  9991
2 43706  54.1727 189.0472 0006375 306.0351 138.1008  1.86228182 47839
BEIDOU-3 M18 (C37)      
1 43707U 18093B   25333.96094345  .00000109  00000+0  00000+0 0  9996
2 43707  54.1734 189.0480 0006378 350.6014   9.4764  1.86226450 47825
BEIDOU-3 IGSO-1 (C38)   
1 44204U 19023A   25323.59378135 -.00000226  00000+0  00000+0 0  9994
2 44204  58.4003  39.8168 0026966 221.2202 126.9723  1.00252177  5102
BEIDOU-2 G8 (C01)       
1 44231U 19027A   25334.17741512 -.00000225  00000+0  00000+0 0  9996
2 44231   1.6272  74.6862 0008088 255.7113 307.3675  1.00271420 24087
BEIDOU-3 IGSO-2 (C39)   
1 44337U 19035A   25332.72947645 -.00000040  00000+0  00000+0 0  9991
2 44337  55.2218 160.6256 0037597 202.0980  87.3007  1.00275421 23657
BEIDOU-3 M24 (C46)      
1 44542U 19061A   25334.03217569  .00000109  00000+0  00000+0 0  9994
2 44542  54.4002 189.4453 0009555  23.3497 336.7840  1.86229277 42081
